     2              NAVIGATION DATA                         RINEX VERSION / TYPE
CCRINEXN V1.6.0 UX  CDDIS               16-FEB-23 23:31     PGM / RUN BY / DATE 
IGS BROADCAST EPHEMERIS FILE                                COMMENT             
    0.2794D-07  0.1490D-07 -0.1192D-06  0.5960D-07          ION ALPHA           
    0.1413D+06 -0.8192D+05  0.6554D+05 -0.4588D+06          ION BETA            
    0.000000000000D+00 0.000000000000D+00   319488     2249 DELTA-UTC: A0,A1,T,W
    18                                                      LEAP SECONDS        
                                                            END OF HEADER       
 3 23  2 15 20  0  0.0-0.362687278539D-03 0.466116034659D-11 0.000000000000D+00
    0.540000000000D+02-0.102781250000D+03 0.393302096897D-08-0.177090444359D+01
   -0.536255538464D-05 0.446312024724D-02 0.845268368721D-05 0.515372328567D+04
    0.331200000000D+06 0.130385160446D-06-0.110589350865D+01-0.875443220139D-07
    0.977397759763D+00 0.225500000000D+03 0.101508685387D+01-0.768889170177D-08
    0.325013538118D-10 0.100000000000D+01 0.224900000000D+04 0.000000000000D+00
    0.200000000000D+01 0.000000000000D+00 0.186264514923D-08 0.540000000000D+02
    0.324018000000D+06 0.400000000000D+01 0.000000000000D+00 0.000000000000D+00
 4 23  2 15 20  0  0.0-0.267629511654D-04 0.818545231596D-11 0.000000000000D+00
    0.390000000000D+02-0.129062500000D+02 0.452197407266D-08 0.115880076315D+01
   -0.616535544395D-06 0.232014560606D-02 0.880844891071D-05 0.515370615196D+04
    0.331200000000D+06-0.279396772385D-07-0.248096935376D-01 0.614672899246D-07
    0.962783704080D+00 0.210906250000D+03-0.304268970399D+01-0.787032783075D-08
    0.451090218290D-09 0.100000000000D+01 0.224900000000D+04 0.000000000000D+00
    0.200000000000D+01 0.000000000000D+00-0.465661287308D-08 0.551000000000D+03
    0.324067000000D+06 0.400000000000D+01 0.000000000000D+00 0.000000000000D+00
 5 23  2 15 20  0  0.0-0.116035807878D-03-0.147792889038D-11 0.000000000000D+00
    0.380000000000D+02-0.129156250000D+03 0.419910348094D-08 0.195703121384D+01
   -0.670924782753D-05 0.576522364281D-02 0.779703259468D-05 0.515362078476D+04
    0.331200000000D+06-0.279396772385D-07-0.115115130934D+01-0.115483999252D-06
    0.964403287519D+00 0.234093750000D+03 0.113161094139D+01-0.792675875275D-08
    0.828605943335D-10 0.100000000000D+01 0.224900000000D+04 0.000000000000D+00
    0.200000000000D+01 0.000000000000D+00-0.111758708954D-07 0.380000000000D+02
    0.324076000000D+06 0.400000000000D+01 0.000000000000D+00 0.000000000000D+00
 6 23  2 15 20  0  0.0 0.572769902646D-03 0.432009983342D-11 0.000000000000D+00
    0.780000000000D+02-0.491562500000D+02 0.395230748661D-08-0.383125521962D+00
   -0.255182385445D-05 0.290474377107D-02 0.239908695221D-05 0.515361231804D+04
    0.331200000000D+06-0.726431608200D-07-0.214606095777D+01-0.260770320892D-07
    0.988632800913D+00 0.348812500000D+03-0.835769883890D+00-0.812855287257D-08
   -0.118933525487D-09 0.100000000000D+01 0.224900000000D+04 0.000000000000D+00
    0.200000000000D+01 0.000000000000D+00 0.372529029846D-08 0.780000000000D+02
    0.324018000000D+06 0.400000000000D+01 0.000000000000D+00 0.000000000000D+00
 7 23  2 15 20  0  0.0 0.240381341428D-03-0.704858393874D-11 0.000000000000D+00
    0.620000000000D+02 0.103750000000D+02 0.505592488528D-08-0.121588694115D+01
    0.763684511185D-06 0.167372339638D-01 0.656954944134D-05 0.515358232880D+04
    0.331200000000D+06 0.363215804100D-06 0.990742084476D+00 0.270083546638D-06
    0.950316599175D+00 0.242937500000D+03-0.222467624137D+01-0.811283793226D-08
   -0.914323799542D-10 0.100000000000D+01 0.224900000000D+04 0.000000000000D+00
    0.200000000000D+01 0.000000000000D+00-0.111758708954D-07 0.620000000000D+02
    0.324068000000D+06 0.400000000000D+01 0.000000000000D+00 0.000000000000D+00
 8 23  2 15 20  0  0.0-0.108650885522D-03-0.181898940355D-11 0.000000000000D+00
    0.840000000000D+02 0.101937500000D+03 0.446768609706D-08 0.160749034549D+01
    0.559166073799D-05 0.833023898304D-02 0.607408583164D-05 0.515366565132D+04
    0.331200000000D+06 0.558793544769D-08 0.305684660216D+01 0.184401869774D-06
    0.960384705684D+00 0.261687500000D+03 0.214925133340D+00-0.817962642856D-08
   -0.112504686272D-09 0.100000000000D+01 0.224900000000D+04 0.000000000000D+00
    0.200000000000D+01 0.000000000000D+00 0.512227416039D-08 0.840000000000D+02
    0.324069000000D+06 0.400000000000D+01 0.000000000000D+00 0.000000000000D+00
 9 23  2 15 20  0  0.0-0.217587221414D-03 0.704858393874D-11 0.000000000000D+00
    0.330000000000D+02-0.207187500000D+02 0.460447750926D-08 0.193444046567D+01
   -0.103749334812D-05 0.249598722439D-02 0.886991620064D-05 0.515366644478D+04
    0.331200000000D+06 0.316649675369D-07-0.806709907163D-01 0.596046447754D-07
    0.956002141052D+00 0.205093750000D+03 0.197068221153D+01-0.787711382769D-08
    0.493591988659D-09 0.100000000000D+01 0.224900000000D+04 0.000000000000D+00
    0.200000000000D+01 0.000000000000D+00 0.139698386192D-08 0.330000000000D+02
    0.324070000000D+06 0.400000000000D+01 0.000000000000D+00 0.000000000000D+00
10 23  2 15 20  0  0.0-0.248411670327D-04-0.159161572810D-11 0.000000000000D+00
    0.140000000000D+02-0.117656250000D+03 0.383694553847D-08-0.271435461147D+01
   -0.616721808910D-05 0.846446142532D-02 0.786967575550D-05 0.515369029236D+04
    0.331200000000D+06 0.745058059692D-08-0.110856811935D+01-0.745058059692D-07
    0.977151537484D+00 0.237500000000D+03-0.244191912702D+01-0.759674500635D-08
    0.124648049234D-09 0.100000000000D+01 0.224900000000D+04 0.000000000000D+00
    0.200000000000D+01 0.000000000000D+00 0.232830643654D-08 0.140000000000D+02
    0.324018000000D+06 0.400000000000D+01 0.000000000000D+00 0.000000000000D+00
11 23  2 15 20  0  0.0-0.105155166238D-03-0.102318153950D-10 0.000000000000D+00
    0.157000000000D+03-0.539687500000D+02 0.455268963780D-08 0.854481636019D+00
   -0.277720391750D-05 0.760963885114D-03 0.173598527908D-05 0.515370636558D+04
    0.331200000000D+06-0.204890966415D-07-0.210245092510D+01 0.726431608200D-07
    0.964716072571D+00 0.349968750000D+03-0.269437428993D+01-0.838534928346D-08
   -0.123219418298D-09 0.100000000000D+01 0.224900000000D+04 0.000000000000D+00
    0.200000000000D+01 0.000000000000D+00-0.884756445885D-08 0.925000000000D+03
    0.324348000000D+06 0.400000000000D+01 0.000000000000D+00 0.000000000000D+00
12 23  2 15 20  0  0.0-0.340753234923D-03-0.454747350886D-11 0.000000000000D+00
    0.710000000000D+02 0.782187500000D+02 0.436911056242D-08-0.202021024523D+01
    0.405870378017D-05 0.891622342169D-02 0.982917845249D-05 0.515366033936D+04
    0.331200000000D+06 0.113621354103D-06 0.210557419375D+01 0.279396772385D-07
    0.966143361280D+00 0.192500000000D+03 0.133505663410D+01-0.768746307084D-08
   -0.351086052715D-09 0.100000000000D+01 0.224900000000D+04 0.000000000000D+00
    0.280000000000D+01 0.000000000000D+00-0.125728547573D-07 0.710000000000D+02
    0.324018000000D+06 0.400000000000D+01 0.000000000000D+00 0.000000000000D+00
14 23  2 15 20  0  0.0-0.263163819909D-04 0.898126018001D-11 0.000000000000D+00
    0.670000000000D+02 0.637812500000D+02 0.471769651100D-08-0.196735209211D+01
    0.327080488205D-05 0.266402028501D-02 0.931322574616D-05 0.515366735649D+04
    0.331200000000D+06 0.186264514923D-07 0.206848866307D+01-0.875443220139D-07
    0.949478301765D+00 0.195562500000D+03-0.307882619729D+01-0.797354641593D-08
   -0.373229832235D-09 0.100000000000D+01 0.224900000000D+04 0.000000000000D+00
    0.200000000000D+01 0.000000000000D+00-0.791624188423D-08 0.670000000000D+02
    0.324049000000D+06 0.400000000000D+01 0.000000000000D+00 0.000000000000D+00
15 23  2 15 20  0  0.0 0.137556344271D-04 0.329691829393D-11 0.000000000000D+00
    0.700000000000D+01-0.363437500000D+02 0.521521723473D-08 0.629618285740D+00
   -0.180862843990D-05 0.147354076616D-01 0.932253897190D-05 0.515367528343D+04
    0.331200000000D+06-0.162050127983D-06-0.196342593451D+00 0.428408384323D-07
    0.932190944695D+00 0.188562500000D+03 0.117907589925D+01-0.843570852398D-08
    0.385016037463D-09 0.100000000000D+01 0.224900000000D+04 0.000000000000D+00
    0.200000000000D+01 0.000000000000D+00-0.107102096081D-07 0.700000000000D+01
    0.324018000000D+06 0.400000000000D+01 0.000000000000D+00 0.000000000000D+00
16 23  2 15 20  0  0.0-0.519915018231D-03 0.170530256582D-11 0.000000000000D+00
    0.530000000000D+02 0.569687500000D+02 0.432839458072D-08 0.241477834667D+01
    0.281259417534D-05 0.133927513380D-01 0.970810651779D-05 0.515379101944D+04
    0.331200000000D+06-0.111758708954D-06 0.212392681120D+01-0.219792127609D-06
    0.965901821802D+00 0.195281250000D+03 0.763063904263D+00-0.766103339851D-08
   -0.366086677551D-09 0.100000000000D+01 0.224900000000D+04 0.000000000000D+00
    0.200000000000D+01 0.000000000000D+00-0.102445483208D-07 0.530000000000D+02
    0.326868000000D+06 0.400000000000D+01 0.000000000000D+00 0.000000000000D+00
17 23  2 15 20  0  0.0 0.700249336660D-03 0.238742359215D-11 0.000000000000D+00
    0.800000000000D+02 0.982500000000D+02 0.413052919598D-08 0.156262123628D+01
    0.478327274323D-05 0.136620760895D-01 0.458210706711D-05 0.515371851349D+04
    0.331200000000D+06 0.182539224625D-06-0.313892234533D+01-0.365078449249D-06
    0.975897995166D+00 0.295687500000D+03-0.141946504550D+01-0.797890378194D-08
    0.357157734196D-10 0.100000000000D+01 0.224900000000D+04 0.000000000000D+00
    0.200000000000D+01 0.000000000000D+00-0.111758708954D-07 0.800000000000D+02
    0.327218000000D+06 0.400000000000D+01 0.000000000000D+00 0.000000000000D+00
